{
  "places":{
      "apiversion":0.1,
      "placesList":[
        {
          "placeId":2,
          "placeName":"Edificio A",
          "latitude":13.7160113,
          "longitude":-89.1539875
        },
        {
          "placeId":3,
          "placeName":"Edificio B",
          "latitude":13.7157753,
          "longitude":-89.1539735
        },
        {
          "placeId":4,
          "placeName":"Edificio C",
          "latitude":13.7152544,
          "longitude":-89.1539216
        },
        {
          "placeId":5,
          "placeName":"Edificio 2",
          "latitude":13.7159954,
          "longitude":-89.1555164
        },
        {
          "placeId":6,
          "placeName":"Edificio 3",
          "latitude":13.7158364,
          "longitude":-89.1558184
        },
        {
          "placeId":7,
          "placeName":"Edificio 4",
          "latitude":13.7154654,
          "longitude":-89.1559544
        },
        {
          "placeId":8,
          "placeName":"Edificio 5",
          "latitude":13.7151204,
          "longitude":-89.1557974
        },
        {
          "placeId":9,
          "placeName":"Edificio 6",
          "latitude":13.7147229,
          "longitude":-89.1559896
        },
        {
          "placeId":10,
          "placeName":"Edificio 7",
          "latitude":13.7144849,
          "longitude":-89.1559818
        },
        {
          "placeId":11,
          "placeName":"Edificio 8",
          "latitude":13.7147429,
          "longitude":-89.1549098
        },
        {
          "placeId":12,
          "placeName":"One World Competence",
          "latitude":13.7154827,
          "longitude":-89.1568819
        }
    ]
  }
}
